CubeBel-2 (EU11S)
1 57175U 23091K   25296.92329884  .00014934  00000-0  64960-3 0  9998
2 57175  97.5411 353.6917 0010501 220.6549 139.3904 15.22307881128279
ENSO
1 58470U 23185J   25297.02262491  .00485616  92806-4  15285-2 0  9996
2 58470  97.3513  18.5913 0006610 271.7375  88.3141 15.91315695106395
SONATE-2
1 59112U 24043Q   25296.92091397  .00030900  00000-0  73372-3 0  9992
2 59112  97.5306  71.4613 0009537 349.2566  10.8475 15.41595667 91296
MO-122
1 60209U 24125G   25296.56722488  .00032216  00000-0  74536-3 0  9999
2 60209  97.2592 147.0351 0016806  13.3539 346.8150 15.42263520 72869
GRBBeta
1 60237U 24128C   25296.56848355  .00005001  00000-0  36224-3 0  9999
2 60237  61.9911 324.9731 0057040  85.9163 274.8445 15.04040566 70646
Curium One
1 60242U 24128H   25296.54145713  .00009577  00000-0  61706-3 0  9996
2 60242  61.9804 321.0518 0056742  82.4096 278.3437 15.07577532 70718
ROBUSTA-3A
1 60243U 24128J   25296.45818395  .00008986  00000-0  58948-3 0  9997
2 60243  61.9878 322.6677 0056631  79.8796 280.8679 15.06983113 70684
CatSat
1 60246U 24125J   25296.64797692  .00034733  00000-0  96657-3 0  9992
2 60246  97.2406 144.7136 0036508 330.6751  29.2444 15.36061096 70820
HYPERVIEW-1G (RS66S)
1 61772U 24199AP  25296.94460442  .00040354  00000-0  91570-3 0  9996
2 61772  97.3275 165.9292 0013820  65.3850 294.8836 15.42847056 97922
AO-123
1 61781U 24199AY  25296.94224684  .00011515  00000-0  39023-3 0  9994
2 61781  97.3305 162.9720 0017029  75.1146 285.1980 15.30576152 97725
ZIMSAT 2
1 61783U 24199BA  25296.94098837  .00113055  00000-0  15878-2 0  9998
2 61783  97.3204 168.1193 0012169  60.9502 299.2971 15.56243709101229
HADES-R (SO-124)
1 62690U 25009CK  25296.17466128  .00106717  00000-0  23105-2 0  9993
2 62690  97.3972  17.4571 0002333 296.9465  63.1545 15.44050581 42945
HYDRA-T
1 62692U 25009CM  25296.64261652  .00103643  00000-0  21854-2 0  9996
2 62692  97.3967  18.0515 0002489 287.5846  72.5130 15.44845422 43027
JINJUSat 1B
1 63210U 25052A   25296.67298914  .00019212  00000-0  78417-3 0  9991
2 63210  97.4220 189.2204 0003334 165.5378 194.5955 15.24449235 33959
NUSHSAT 1
1 63211U 25052B   25296.43455471  .00023030  00000-0  91953-3 0  9992
2 63211  97.4206 189.0497 0003035 168.6461 191.4846 15.25151999 33921
TEVEL2-4
1 63213U 25052D   25296.67858077  .00020114  00000-0  81594-3 0  9999
2 63213  97.4122 188.9419 0001723 172.8284 187.2979 15.24649310 33955
TEVEL2-5
1 63214U 25052E   25296.68202101  .00019654  00000-0  79862-3 0  9994
2 63214  97.4123 188.9381 0001738 173.5300 186.5960 15.24597826 33954
TEVEL2-6
1 63215U 25052F   25296.68778089  .00019723  00000-0  80245-3 0  9992
2 63215  97.4125 188.9342 0001700 174.0204 186.1054 15.24554453 33951
TEVEL2-1
1 63217U 25052H   25296.65489676  .00020305  00000-0  83303-3 0  9998
2 63217  97.4100 188.7529 0001172 205.0038 155.1143 15.24268338 33942
TEVEL2-3
1 63218U 25052J   25296.98290524  .00020675  00000-0  84742-3 0  9995
2 63218  97.4101 189.0802 0001232 201.7736 158.3449 15.24297162 33993
TEVEL2-2
1 63219U 25052K   25296.65567275  .00020438  00000-0  83848-3 0  9993
2 63219  97.4100 188.7537 0001159 205.2538 154.8643 15.24267020 33943
TEVEL2-9
1 63237U 25052AD  25296.24308492  .00020271  00000-0  86618-3 0  9995
2 63237  97.4167 188.1187 0004982 259.7902 100.2773 15.22882195 33850
TEVEL2-7
1 63238U 25052AE  25296.64688773  .00019389  00000-0  83120-3 0  9996
2 63238  97.4168 188.5006 0005055 258.4810 101.5859 15.22780803 33911
TEVEL2-8
1 63239U 25052AF  25296.65162992  .00019479  00000-0  83574-3 0  9991
2 63239  97.4166 188.4921 0005111 258.8207 101.2455 15.22751591 33913
HYDRA-W
1 63490U 25052BL  25296.44735640  .00062701  00000-0  19260-2 0  9999
2 63490  97.4102 189.8185 0005554 244.9909 115.0757 15.33472913 33991
HADES-ICM (SO-125)
1 63492U 25052BN  25296.65377166  .00050505  00000-0  16108-2 0  9996
2 63492  97.4108 189.8664 0006129 251.3658 108.6918 15.32328993 34011
Dragonfly
1 65729U 98067XH  25296.45445133  .00104344  00000-0  13650-2 0  9995
2 65729  51.6332  30.2543 0002075  39.3381 320.7762 15.57793207  5298
RSP-03
1 65732U 98067XL  25296.46175203  .00089688  00000-0  12097-2 0  9995
2 65732  51.6329  30.3028 0004457   6.7159 353.3892 15.57035678  5303
GHS-01
1 65733U 98067XM  25296.51379551  .00115291  00000-0  14761-2 0  9994
2 65733  51.6338  29.9014 0002407  33.0960 327.0183 15.58315864  5310
BOTAN
1 65942U 98067XP  25296.66722412  .00077490  00000-0  12293-2 0  9996
2 65942  51.6347  30.1724 0004028 316.8801  43.1873 15.52672525  2066
CUTE-1 (CO-55)          
1 27844U 03031E   25296.91815533  .00000536  00000+0  25172-3 0  9994
2 27844  98.6784 303.4600 0010189 146.3335 213.8493 14.24116747158044
CUBESAT XI-IV (CO-57)   
1 27848U 03031J   25296.43887083  .00000469  00000+0  22567-3 0  9994
2 27848  98.6813 302.8883 0009756 164.5219 195.6260 14.23433743157694
CUBESAT XI-V            
1 28895U 05043F   25296.40294409  .00003026  00000+0  49433-3 0  9996
2 28895  98.2692  82.6521 0013533 234.0978 125.8972 14.71588107 66910
CUTE-1.7+APD II (CO-65) 
1 32785U 08021C   25296.95895044  .00008031  00000+0  55251-3 0  9996
2 32785  97.8019 269.3916 0011377 107.1432 253.1041 15.06127250949595
CANX-2                  
1 32790U 08021H   25296.91615073  .00006621  00000+0  49487-3 0  9997
2 32790  97.8389 267.9250 0013296 115.6024 244.6576 15.03062926949288
SEEDS II (CO-66)        
1 32791U 08021J   25296.93938197  .00021525  00000+0  91898-3 0  9998
2 32791  97.7415 280.4714 0006203  71.9504 288.2407 15.22897872951210
SWISSCUBE               
1 35932U 09051B   25296.66751918  .00001870  00000+0  38495-3 0  9991
2 35932  98.4136 195.3579 0005721 222.3583 137.7176 14.61733537854597
BEESAT-1                
1 35933U 09051C   25296.69866649  .00001732  00000+0  36240-3 0  9996
2 35933  98.4072 195.4967 0004039 237.4951 122.5859 14.61087351854648
ITUPSAT1                
1 35935U 09051E   25296.69144972  .00001589  00000+0  34235-3 0  9998
2 35935  98.4162 194.9141 0006230 251.1538 108.8986 14.59858577854222
TISAT 1                 
1 36799U 10035E   25296.35603881  .00023772  00000+0  10766-2 0  9993
2 36799  98.0550 219.1637 0003951  37.6307 322.5202 15.20874550831573
AEROCUBE 4.5A           
1 38767U 12048K   25296.92093716  .00048627  00000+0  99496-3 0  9993
2 38767  64.6422 128.5135 0083193 242.0648 117.2049 15.42108431335770
STRAND-1                
1 39090U 13009E   25296.95305021  .00000568  00000+0  20605-3 0  9997
2 39090  98.3844 118.1192 0008011 211.2038 148.8674 14.36940234663132
BRITE-AUSTRIA           
1 39091U 13009F   25296.45104443  .00000383  00000+0  14525-3 0  9997
2 39091  98.3908 116.8657 0009377 222.6100 137.4359 14.36391773663061
NEE-01 PEGASO           
1 39151U 13018B   25296.93151660  .00005398  00000+0  53998-3 0  9998
2 39151  98.0927  69.0596 0012395 218.0097 142.0247 14.91821692675458
POPACS 1                
1 39268U 13055D   25296.94241340  .00122165  32923-5  65452-3 0  9999
2 39268  80.9606 276.1043 0163237 224.5475 134.2564 15.63423540635757
POPACS 2                
1 39269U 13055E   25296.60230567  .00029716  00000+0  56067-3 0  9997
2 39269  80.9982  53.1155 0457567 228.7488 127.3457 14.80562387628065
POPACS 3                
1 39270U 13055F   25296.50612464  .00010906  00000+0  26742-3 0  9996
2 39270  81.0000 124.8079 0573817  68.2250 297.8978 14.50703592604171
ZACUBE-1 (TSHEPISOSAT)  
1 39417U 13066B   25296.38311712  .00008531  00000+0  70952-3 0  9992
2 39417  97.7989 252.9073 0041485 321.1129  38.7111 14.98275940645234
WNISAT-1                
1 39423U 13066H   25296.96033874  .00002010  00000+0  37817-3 0  9992
2 39423  97.6913  98.4235 0163391 255.8847 102.4149 14.57417789632310
TRITON-1                
1 39427U 13066M   25296.95747424  .00004970  00000+0  61827-3 0  9993
2 39427  97.8288 207.2777 0091117 283.9651  75.1441 14.80048966639123
GOMX-1                  
1 39430U 13066Q   25296.88608245  .00002645  00000+0  40917-3 0  9990
2 39430  97.6650 147.1287 0132312 115.5893 245.9056 14.68266830635221
CUBEBUG-2 (LO-74)       
1 39440U 13066AA  25296.55964459  .00005804  00000+0  56885-3 0  9998
2 39440  97.8629 240.3498 0062480  90.8517 269.9861 14.91168076641693
NEE-02 KRYSAOR          
1 39441U 13066AB  25296.79197063  .00003347  00000+0  38102-3 0  9996
2 39441  97.8658 233.2399 0069327 123.5666 237.2194 14.85135786641099
FUNCUBE-1 (AO-73)       
1 39444U 13066AE  25296.46943612  .00012557  00000+0  88049-3 0  9990
2 39444  97.7983 259.1973 0037855 288.8219  70.8903 15.04750422644002
UWE-3                   
1 39446U 13066AG  25296.41267709  .00008865  00000+0  80803-3 0  9990
2 39446  97.8398 246.7823 0052900  30.2889 330.1370 14.94285916642187
BRITE-CA1 (TORONTO)     
1 40020U 14033L   25296.95281758  .00001624  00000+0  25486-3 0  9996
2 40020  97.9452  65.8025 0078598 313.8512  45.6217 14.71989786607457
DUCHIFAT-1              
1 40021U 14033M   25296.35883757  .00042355  00000+0  12080-2 0  9999
2 40021  98.0861 323.0982 0007071 186.6162 173.4988 15.35913318619109
NANOSATC-BR1            
1 40024U 14033Q   25296.94016184  .00019336  00000+0  83830-3 0  9994
2 40024  98.0931 304.7295 0002141 304.1969  55.9062 15.22420246617922
QB50P1                  
1 40025U 14033R   25296.91168034  .00013586  00000+0  76990-3 0  9994
2 40025  98.0954 287.4023 0008278 325.3179  34.7510 15.13108071617235
QB50P2                  
1 40032U 14033Y   25296.42400073  .00012115  00000+0  73646-3 0  9992
2 40032  98.0594 274.5823 0005961 259.7956 100.2600 15.10612348616868
PERSEUS-M2              
1 40037U 14033AD  25296.93407301  .00003408  00000+0  32184-3 0  9991
2 40037  97.9678 238.2740 0012505  11.5376 348.6128 14.94364381615483
PERSEUS-M1              
1 40039U 14033AF  25296.78615480  .00003666  00000+0  34550-3 0  9990
2 40039  97.9388 232.6050 0012260  11.0112 349.1374 14.94395880615315
POLYITAN-1              
1 40042U 14033AJ  25296.92644170  .00022462  00000+0  95098-3 0  9997
2 40042  98.1095 297.4463 0006352 244.1488 115.9093 15.23178196617506
